OBJECT_NAME,OBJECT_ID,EPOCH,MEAN_MOTION,ECCENTRICITY,INCLINATION,RA_OF_ASC_NODE,ARG_OF_PERICENTER,MEAN_ANOMALY,EPHEMERIS_TYPE,CLASSIFICATION_TYPE,NORAD_CAT_ID,ELEMENT_SET_NO,REV_AT_EPOCH,BSTAR,MEAN_MOTION_DOT,MEAN_MOTION_DDOT
COSMOS 2534 (758),2019-030A,2026-07-10T03:03:06.483168,2.13102136,.00135098,64.3705,191.8439,274.9524,182.9689,0,U,44299,999,5541,0,.122E-5,0
BEIDOU-3 IGSO-2 (C39),2019-035A,2026-07-10T07:19:51.023424,1.00259088,.00396081,55.2507,158.6604,216.3201,141.9995,0,U,44337,999,2589,0,-.87E-6,0
GPS BIII-2  (PRN 18),2019-056A,2026-07-09T20:09:11.840832,2.00569870,.00632111,55.6250,330.2434,198.0806,346.0647,0,U,44506,999,5052,0,-.79E-6,0
BEIDOU-3 M24 (C46),2019-061A,2026-07-09T19:04:06.197952,1.86229286,.00085912,54.3976,181.9655,359.5370,0.4709,0,U,44542,999,4621,0,.116E-5,0
BEIDOU-3 M23 (C45),2019-061B,2026-07-08T10:30:33.647616,1.86227401,.00058609,54.3960,181.9796,339.6838,102.2392,0,U,44543,999,4619,0,.122E-5,0
EUTELSAT 5 WEST B (EGNOS/PRN 121),2019-067A,2026-07-10T07:59:38.527584,1.00271316,.00030307,0.0633,347.2780,124.0531,291.8313,0,U,44624,999,2466,0,-.32E-6,0
BEIDOU-3 M22 (C44),2019-078A,2026-07-10T04:07:10.286112,1.86227486,.00058553,53.9138,299.0194,49.9813,310.0922,0,U,44793,999,4507,0,-.64E-6,0
BEIDOU-3 M21 (C43),2019-078B,2026-07-08T03:55:41.277216,1.86228045,.00037906,53.8889,299.0507,48.5315,311.5256,0,U,44794,999,4504,0,-.63E-6,0
COSMOS 2544 (759),2019-088A,2026-07-10T00:33:19.156896,2.13103012,.00123374,65.5773,72.9693,255.3467,104.5773,0,U,44850,999,5120,0,-.24E-6,0
BEIDOU-3 M19 (C41),2019-090A,2026-07-09T06:25:15.373920,1.86231620,.00169841,56.5775,62.0617,297.5653,280.0700,0,U,44864,999,4464,0,-.47E-6,0
BEIDOU-3 M20 (C42),2019-090B,2026-07-10T03:51:16.642656,1.86231480,.00148795,56.5796,62.0669,312.5032,233.4737,0,U,44865,999,4464,0,-.46E-6,0
BEIDOU-3 G2 (C60),2020-017A,2026-07-10T03:43:12.659232,1.00269930,.00021908,2.9077,47.6544,57.6305,318.6618,0,U,45344,999,2349,0,-.132E-5,0
COSMOS 2545 (760),2020-018A,2026-07-07T20:55:22.502208,2.13102711,.00092133,64.3418,311.6924,230.0449,129.8870,0,U,45358,999,4910,0,-.52E-6,0
BEIDOU-3 G3 (C61),2020-040A,2026-07-10T07:17:13.773696,1.00266611,.00018525,2.5003,67.4792,329.9731,110.5737,0,U,45807,999,2230,0,-.345E-5,0
GPS BIII-3  (PRN 23),2020-041A,2026-07-09T09:55:38.414784,2.00557912,.00648682,56.6838,28.0825,204.5737,329.3412,0,U,45854,999,4448,0,-.51E-6,0
GALAXY 30 (WAAS/PRN 135),2020-056C,2026-07-10T06:10:05.210400,1.00270345,.00019386,0.0256,34.1445,79.9597,141.5979,0,U,46114,999,2152,0,0,0
COSMOS 2547 (705K),2020-075A,2026-07-08T12:44:16.154592,2.13100166,.0009456,64.6013,191.7631,239.7730,120.1659,0,U,46805,999,4436,0,.126E-5,0
GPS BIII-4  (PRN 14),2020-078A,2026-07-10T05:24:15.673824,2.00564821,.00744261,53.9779,209.8444,207.6928,169.3151,0,U,46826,999,4197,0,.111E-5,0
GPS BIII-5  (PRN 11),2021-054A,2026-07-10T03:58:50.397312,2.00567329,.0026334,55.1625,331.5367,228.5055,292.0216,0,U,48859,999,3721,0,-.81E-6,0
QZS-1R (QZSS/PRN 196),2021-096A,2026-07-09T14:14:06.654912,1.00247254,.07549588,37.5047,79.2525,272.1428,281.8869,0,U,49336,999,1723,0,-.279E-5,0
GSAT0223 (GALILEO 27),2021-116A,2026-07-09T20:59:25.855584,1.70475927,.0002356,57.1531,341.0636,194.9735,168.6501,0,U,49809,999,2857,0,-.78E-6,0
GSAT0224 (GALILEO 28),2021-116B,2026-07-10T06:33:55.425024,1.70475962,.000179,57.1533,341.0513,180.2049,180.8962,0,U,49810,999,2860,0,-.8E-6,0
COSMOS 2557 (706K),2022-075A,2026-07-07T06:53:27.542976,2.13102498,.00105957,64.2857,313.7776,272.6042,87.2866,0,U,52984,999,3114,0,-.5E-6,0
COSMOS 2559 (707K),2022-130A,2026-07-08T23:36:44.543232,2.13101645,.00129932,64.2570,313.8003,180.3657,179.6426,0,U,54031,999,2915,0,-.57E-6,0
COSMOS 2564 (761),2022-161A,2026-07-08T19:50:54.494304,2.13101979,.00122533,64.7436,191.9933,225.0747,134.8592,0,U,54377,999,2809,0,.127E-5,0
GPS BIII-6  (PRN 28),2023-009A,2026-07-10T03:18:52.490592,2.00569891,.00062095,55.1237,147.6170,320.5296,218.5554,0,U,55268,999,2570,0,.48E-6,0
BEIDOU-3 G4 (C62),2023-066A,2026-07-10T07:25:35.471712,1.00274299,.00048559,0.4648,337.4315,187.7070,14.5230,0,U,56564,999,1162,0,-.27E-5,0
NVS-01 (IRNSS-1J),2023-076A,2026-07-10T07:22:35.758848,1.00267057,.00034569,2.1142,243.3193,7.3744,277.7053,0,U,56759,999,1134,0,-.323E-5,0
COSMOS 2569 (703K),2023-114A,2026-07-08T08:52:52.991328,2.13103725,.00099053,65.3140,71.9064,296.3420,63.6175,0,U,57517,999,2271,0,-.24E-6,0
BEIDOU-3 M28 (C50),2023-207A,2026-07-09T20:26:13.448256,1.86229668,.00025748,55.7728,61.5386,2.0527,358.0099,0,U,58654,999,1726,0,-.48E-6,0
BEIDOU-3 M26 (C48),2023-207B,2026-07-09T15:34:37.081056,1.86229622,.00021798,55.7748,61.5320,324.2830,35.7636,0,U,58655,999,1724,0,-.49E-6,0
